BEIDOU-2 IGSO-1 (C06)   
1 36828U 10036A   25038.77696475 -.00000135  00000+0  00000+0 0  9994
2 36828  54.2689 167.4325 0044557 208.2512 148.8700  1.00262087 53132
BEIDOU-2 G4 (C04)       
1 37210U 10057A   25039.63955575 -.00000122  00000+0  00000+0 0  9994
2 37210   2.4219  70.4279 0008853 200.6734 258.0507  1.00272706 52344
BEIDOU-2 IGSO-2 (C07)   
1 37256U 10068A   25039.61705037 -.00000167  00000+0  00000+0 0  9999
2 37256  48.4403 277.9254 0038787 212.8772 338.6161  1.00276845 51845
BEIDOU-2 IGSO-3 (C08)   
1 37384U 11013A   25033.68826663 -.00000155  00000+0  00000+0 0  9999
2 37384  61.6972  44.8905 0031892 184.2681 256.3347  1.00299190 50669
BEIDOU-2 IGSO-4 (C09)   
1 37763U 11038A   25039.01892963 -.00000093  00000+0  00000+0 0  9997
2 37763  54.5736 170.0893 0133898 228.9307 200.4770  1.00258105 49699
BEIDOU-2 IGSO-5 (C10)   
1 37948U 11073A   25039.42100462 -.00000130  00000+0  00000+0 0  9994
2 37948  48.5767 277.6270 0100819 220.0535 248.9075  1.00278402 48187
BEIDOU-2 G5 (C05)       
1 38091U 12008A   25039.19905757  .00000050  00000+0  00000+0 0  9997
2 38091   2.3422  71.2360 0013774 241.3904 316.2519  1.00271245 47415
BEIDOU-2 M3 (C11)       
1 38250U 12018A   25039.19121321 -.00000095  00000+0  00000+0 0  9992
2 38250  56.1669 321.4696 0023225 273.0213  86.7341  1.86233577 86742
BEIDOU-2 M4 (C12)       
1 38251U 12018B   25039.12229688 -.00000093  00000+0  00000+0 0  9999
2 38251  56.0714 320.7255 0014255 278.8122  81.0483  1.86232052 86743
BEIDOU-2 M6 (C14)       
1 38775U 12050B   25038.83219707 -.00000033  00000+0  00000+0 0  9998
2 38775  56.1083  79.2969 0013223 334.0737  25.9255  1.86230902 84107
BEIDOU-2 G6 (C02)       
1 38953U 12059A   25039.12939594 -.00000184  00000+0  00000+0 0  9998
2 38953   3.1629  78.5637 0009535 291.8427 258.6570  1.00272672 44954
BEIDOU-3S IGSO-1S (C31) 
1 40549U 15019A   25037.66456029 -.00000160  00000+0  00000+0 0  9999
2 40549  50.1306 301.4086 0033793 196.1617 331.3580  1.00251955 36108
BEIDOU-3S M2S (C58)     
1 40748U 15037A   25039.32389372 -.00000091  00000+0  00000+0 0  9994
2 40748  55.2961 318.9910 0010498 270.8835  89.0210  1.86229022 64922
BEIDOU-3S M1S (C57)     
1 40749U 15037B   25036.37341503 -.00000087  00000+0  00000+0 0  9996
2 40749  55.2953 319.0853 0004431   0.5327 359.4936  1.86253581 64876
BEIDOU-3S IGSO-2S (C56) 
1 40938U 15053A   25039.56953512 -.00000064  00000+0  00000+0 0  9992
2 40938  49.9857 264.6299 0052207 186.7500 345.3425  1.00252183 34396
BEIDOU-2 IGSO-6 (C13)   
1 41434U 16021A   25036.73930689 -.00000145  00000+0  00000+0 0  9996
2 41434  59.5237  42.9930 0054598 229.4681 226.3639  1.00268793 32506
BEIDOU-2 G7 (C03)       
1 41586U 16037A   25039.57489858 -.00000362  00000+0  00000+0 0  9994
2 41586   1.9472  68.1686 0008002 345.1865  42.9526  1.00277090 31835
BEIDOU-3 M1 (C19)       
1 43001U 17069A   25039.13494466 -.00000030  00000+0  00000+0 0  9999
2 43001  56.2582  79.4134 0011601 300.5584  59.3935  1.86231088 49408
BEIDOU-3 M2 (C20)       
1 43002U 17069B   25037.46177379 -.00000038  00000+0  00000+0 0  9993
2 43002  56.2557  79.5055 0008791 319.7328  40.2647  1.86230840 49367
BEIDOU-3 M7 (C27)       
1 43107U 18003A   25037.20869999 -.00000091  00000+0  00000+0 0  9995
2 43107  54.7566 319.5513 0003942  56.6807 303.3806  1.86232240 48123
BEIDOU-3 M8 (C28)       
1 43108U 18003B   25039.29887699 -.00000092  00000+0  00000+0 0  9995
2 43108  54.7478 319.4634 0004014 283.0229  76.9561  1.86230798 48165
BEIDOU-3 M4 (C22)       
1 43207U 18018A   25039.20309311 -.00000030  00000+0  00000+0 0  9994
2 43207  56.2170  79.4922 0005810 342.1526  17.8936  1.86231007 47541
BEIDOU-3 M3 (C21)       
1 43208U 18018B   25039.26963680 -.00000030  00000+0  00000+0 0  9996
2 43208  56.2167  79.4942 0009086 310.0556  49.9315  1.86231160 47543
BEIDOU-3 M9 (C29)       
1 43245U 18029A   25038.41484446 -.00000089  00000+0  00000+0 0  9997
2 43245  54.6313 317.1938 0001393 318.0831  41.9324  1.86232396 46681
BEIDOU-3 M10 (C30)      
1 43246U 18029B   25038.34500250 -.00000089  00000+0  00000+0 0  9992
2 43246  54.6290 317.2242 0004954   5.1984 354.8327  1.86228812 46669
BEIDOU-2 IGSO-7 (C16)   
1 43539U 18057A   25038.77739914 -.00000141  00000+0  00000+0 0  9995
2 43539  55.1599 167.3474 0083883 234.4066 126.6117  1.00296055 24173
BEIDOU-3 M5 (C23)       
1 43581U 18062A   25039.64460594  .00000042  00000+0  00000+0 0  9999
2 43581  54.1111 199.0843 0001406 335.3339  24.6226  1.86228554 44449
BEIDOU-3 M6 (C24)       
1 43582U 18062B   25038.97226504  .00000055  00000+0  00000+0 0  9990
2 43582  54.1111 199.0965 0006827  45.1235 314.8990  1.86229403 44433
BEIDOU-3 M12 (C26)      
1 43602U 18067A   25038.90688562  .00000054  00000+0  00000+0 0  9996
2 43602  54.2033 197.8018 0008404  37.1240 322.8999  1.86227701 43914
BEIDOU-3 M11 (C25)      
1 43603U 18067B   25039.57752366  .00000041  00000+0  00000+0 0  9991
2 43603  54.2007 197.7437 0004955  33.5327 326.4606  1.86227195 43959
BEIDOU-3 M13 (C32)      
1 43622U 18072A   25038.46379952 -.00000034  00000+0  00000+0 0  9994
2 43622  56.1883  79.0417 0008227 296.6390  63.3410  1.86231005 43440
BEIDOU-3 M14 (C33)      
1 43623U 18072B   25039.40318934 -.00000029  00000+0  00000+0 0  9997
2 43623  56.1910  79.0039 0005565 316.9719  43.0518  1.86231004 43459
BEIDOU-3 M16 (C35)      
1 43647U 18078A   25037.41636854 -.00000088  00000+0  00000+0 0  9997
2 43647  54.5288 317.3081 0008030  16.5046 343.5477  1.86232174 42939
BEIDOU-3 M15 (C34)      
1 43648U 18078B   25039.15642255 -.00000088  00000+0  00000+0 0  9993
2 43648  54.5230 317.2495 0004918  20.4694 339.5769  1.86232022 42974
BEIDOU-3 G1 (C59)       
1 43683U 18085A   25039.51919633 -.00000288  00000+0  00000+0 0  9999
2 43683   2.7811 101.6210 0001168   6.2371 357.9743  1.00270974 23116
BEIDOU-3 M17 (C36)      
1 43706U 18093A   25036.62517567  .00000089  00000+0  00000+0 0  9991
2 43706  54.1948 199.1427 0006177 295.9614  63.9493  1.86228110 42293
BEIDOU-3 M18 (C37)      
1 43707U 18093B   25038.63641688  .00000061  00000+0  00000+0 0  9997
2 43707  54.1956 199.0661 0005760 340.6522  19.2946  1.86229698 42328
BEIDOU-3 IGSO-1 (C38)   
1 44204U 19023A   25039.40789214 -.00000195  00000+0  00000+0 0  9997
2 44204  57.9924  42.7527 0023050 226.9589 135.1773  1.00283474  2266
BEIDOU-2 G8 (C01)       
1 44231U 19027A   25039.62584525 -.00000256  00000+0  00000+0 0  9991
2 44231   2.0672  74.8977 0005049 213.3323 220.5024  1.00274678 21137
BEIDOU-3 IGSO-2 (C39)   
1 44337U 19035A   25038.94455972 -.00000156  00000+0  00000+0 0  9993
2 44337  55.2003 163.2008 0036122 199.4522 233.5731  1.00265877 20747
BEIDOU-3 M24 (C46)      
1 44542U 19061A   25038.16981122  .00000070  00000+0  00000+0 0  9999
2 44542  54.4224 199.4232 0008598  19.0126 340.9908  1.86228980 36579
BEIDOU-3 M23 (C45)      
1 44543U 19061B   25035.88432111  .00000095  00000+0  00000+0 0  9992
2 44543  54.4214 199.4688 0005208  17.9296 162.4224  1.86229054 36531
BEIDOU-3 IGSO-3 (C40)   
1 44709U 19073A   25039.07819990 -.00000166  00000+0  00000+0 0  9998
2 44709  55.6449 286.2183 0041159 182.8793 177.1855  1.00285035 19500
BEIDOU-3 M22 (C44)      
1 44793U 19078A   25039.08749239 -.00000088  00000+0  00000+0 0  9998
2 44793  54.3745 317.1532 0006800  20.3341 339.7197  1.86232004 35447
BEIDOU-3 M21 (C43)      
1 44794U 19078B   25039.21800541 -.00000088  00000+0  00000+0 0  9998
2 44794  54.3478 317.1195 0005061  14.0800 345.9611  1.86227584 35452
BEIDOU-3 M19 (C41)      
1 44864U 19090A   25039.61117970 -.00000028  00000+0  00000+0 0  9995
2 44864  56.1238  79.1611 0019634 283.6863 172.5073  1.86231389 35045
BEIDOU-3 M20 (C42)      
1 44865U 19090B   25039.27869534 -.00000030  00000+0  00000+0 0  9991
2 44865  56.1250  79.2060 0017097 295.2283  27.7390  1.86231331 35012
BEIDOU-3 G2 (C60)       
1 45344U 20017A   25039.56452593 -.00000149  00000+0  00000+0 0  9991
2 45344   2.6555  37.4106 0003337 280.0707 104.6736  1.00272312 18314
BEIDOU-3 G3 (C61)       
1 45807U 20040A   25039.57489853 -.00000362  00000+0  00000+0 0  9998
2 45807   1.2617  60.2267 0003283 305.6720  90.4616  1.00274822 17128
BEIDOU-3 G4 (C62)       
1 56564U 23066A   25039.62083936 -.00000118  00000+0  00000+0 0  9998
2 56564   1.5358 289.8186 0002018 260.6454 332.0067  1.00272011  6449
BEIDOU-3 M28 (C50)      
1 58654U 23207A   25038.76292035 -.00000035  00000+0  00000+0 0  9991
2 58654  55.3095  79.0418 0004377 282.0514  77.9639  1.86231939  7638
BEIDOU-3 M26 (C48)      
1 58655U 23207B   25038.56246045 -.00000036  00000+0  00000+0 0  9991
2 58655  55.3114  79.0346 0005326 268.4267  91.5760  1.86231396  7611
